#cP2023  8  5  0  0  0.00000000      96 ORBIT IGS20 HLM  IGS
## 2273 518400.00000000   900.00000000 60161 0.0000000000000
+   32   G01G02G03G04G05G06G07G08G09G10G11G12G13G14G15G16G17
+        G18G19G20G21G22G23G24G25G26G27G28G29G30G31G32  0  0
+          0  0  0  0  0  0  0  0  0  0  0  0  0  0  0  0  0
+          0  0  0  0  0  0  0  0  0  0  0  0  0  0  0  0  0
+          0  0  0  0  0  0  0  0  0  0  0  0  0  0  0  0  0
++         2  2  2  2  2  2  2  2  2  2  2  2  2  2  2  2  2
++         2  2  2  2  3  2  2  2  2  2  2  2  2  2  2  0  0
++         0  0  0  0  0  0  0  0  0  0  0  0  0  0  0  0  0
++         0  0  0  0  0  0  0  0  0  0  0  0  0  0  0  0  0
++         0  0  0  0  0  0  0  0  0  0  0  0  0  0  0  0  0
%c G  cc GPS ccc cccc cccc cccc cccc ccccc ccccc ccccc ccccc
%c cc cc ccc ccc cccc cccc cccc cccc ccccc ccccc ccccc ccccc
%f  1.2500000  1.025000000  0.00000000000  0.000000000000000
%f  0.0000000  0.000000000  0.00000000000  0.000000000000000
%i    0    0    0    0      0      0      0      0         0
%i    0    0    0    0      0      0      0      0         0
/* RAPID ORBIT COMBINATION FROM WEIGHTED AVERAGE OF:        
/* cod emr esa gfz grg jgx jpl ngs sio usn whu              
/* REFERENCED TO IGS TIME (IGST) AND TO WEIGHTED MEAN POLE: 
/* PCV:IGS20      OL/AL:FES2014b NONE     Y  ORB:CMB CLK:CMB
*  2023  8  5  9  0  0.00000000
PG01  13688.086002 -17693.368773  13703.664923    169.815563  5  4  4  77       
PG02  14950.530325 -11663.371081  19033.633424   -568.802176  4  5  3  68       
PG03  21373.323970 -12874.199494  -9076.057172   -201.590881  3  1  4 103       
PG04  11428.732779  -9982.290166 -21790.974715    116.368861  6  5  5  95       
PG05 -25455.161744   4133.197643  -6770.461166   -137.613562  4  4  3 113       
PG06  -6855.801235 -19152.841016 -16966.936985    570.263762  6  5  4  81       
PG07   5299.379799 -25750.336942    937.197341    104.670800  7  7  5  97       
PG08  19488.056222    157.199597  18147.017768   -135.674774  6     6  65       
PG09   1971.310477 -17262.564148 -20153.092425    -94.546907  5  6  5  90       
PG10   7712.539086  13078.801240  21997.835425    -48.016517  6  6  5  75       
PG11 -14228.254733  -5154.533319 -21817.901919   -306.931039  8  6  6  85       
PG12 -23980.802113   9785.899289  -5966.846714   -409.212459  5  4  3  98       
PG13 -20297.879919  -9674.335915  14116.110375    556.221872  5  6  6 100       
PG14  -3851.780154 -15020.833794  21582.328664    144.459231  4  6  5  89       
PG15 -19090.033287   2852.968927  17877.741698     64.695098  5  5  3 106       
PG16  24746.427981   2083.515081 -10330.110330   -472.207842  7  6  4  85       
PG17 -11737.669049 -21907.738988   9638.773506    722.254523  6  5  5  84       
PG18  -4346.869826  25929.549134   3042.240821   -371.464052  5  7  5  98       
PG19 -16879.801290 -20693.831414   1177.802192    353.462273  5  7  4  68       
PG20 -21108.876286  -2060.559211 -15834.893737    418.883163  5  3  4  79       
PG21  15437.705137  -8068.866585  20316.898535    151.207027  4  5  3  79       
PG22  18415.265574  19199.248855  -1039.897838    522.733182  8  9  5 100       
PG23  -6351.927242  16377.066928  19873.493969     51.344532  5  5  6  83       
PG24 -14466.135572  13915.088476  16813.746778   -280.216454  5  5  3  92       
PG25 -13607.515212  16355.022610 -16046.161679    460.361050  6  4  6  98       
PG26  17796.945551   7757.855606 -18388.238105    234.097219  5  4  2  82       
PG27  22112.899306  11328.103398   9690.771414    -16.425351  6  6  4  71       
PG28   6877.108372  20607.426094 -15303.092556     78.665341  7  7  5  66       
PG29  -3922.085540  16323.034947 -20606.819432   -607.148463  7  6  4  59       
PG30  -1519.608863 -24581.989061   9716.874094   -498.918300  7  3  3 104       
PG31  12637.863955  10537.910019 -20945.381051   -221.313807  7  4  5  68       
PG32  15726.351196  20579.968802   6526.892720   -534.851920  4  6  5  77       
*  2023  8  5  9 15  0.00000000
PG01  13471.238043 -15945.273988  15871.383033    169.814106  5  3  5  80       
PG02  14813.112111  -9505.908058  20345.051669   -568.798421  5  5  3  56       
PG03  22256.164371 -12970.182205  -6359.768392   -201.575211  3  1  4  99       
PG04  13223.641972  -8274.524320 -21499.698907    116.379001  6  4  5  81       
PG05 -24694.150191   3606.678217  -9428.800585   -137.615080  4  3  4  89       
PG06  -6360.694405 -20923.284833 -14948.324162    570.259582  6  5  4  80       
PG07   5596.777731 -25581.625667  -1925.341411    104.660975  6  6  5  79       
PG08  20926.472433   1523.920208  16442.514710   -135.677108  7     6  70       
PG09   3826.148411 -15826.784289 -21052.459405    -94.538285  5  6  5  90       
PG10   5365.307034  13885.601888  22174.019910    -48.018158  6  7  5  63       
PG11 -13607.489623  -7555.552551 -21516.645570   -306.946274  8  6  6  56       
PG12 -24519.009136   9677.913688  -3162.533162   -409.216948  5  4  3  74       
PG13 -21150.345054 -10923.448991  11813.307756    556.226280  5  6  6  89       
PG14  -1494.752351 -15718.827174  21361.296345    144.469869  4  6  5  93       
PG15 -20692.191908   1583.579548  16242.724719     64.698072  6  5  4 106       
PG16  23560.992885   2552.878518 -12743.360813   -472.203508  7  5  3  88       
PG17 -10758.614078 -21205.030276  12149.137046    722.255256  6  4  5  74       
PG18  -4610.714304  26060.782396    157.746518   -371.476330  6  7  5  96       
PG19 -16520.040643 -20594.504811   4017.541265    353.466540  5  6  4  88       
PG20 -19506.800224  -3154.067075 -17622.247128    418.881608  6  2  4  60       
PG21  15305.904752  -5776.532183  21279.431817    151.206615  5  5  3  60       
PG22  18249.214771  19367.218329   1811.745605    522.737809  8  9  6  95       
PG23  -8446.602116  17042.268171  18470.564199     51.348596  5  5  5  79       
PG24 -14460.239227  11802.821628  18368.865883   -280.227019  5  5  3  91       
PG25 -15260.754049  16722.783855 -13985.751557    460.363059  6  4  6  94       
PG26  15865.702917   8719.633306 -19657.302329    234.095978  5  3  3  87       
PG27  22725.337309  12116.654827   7064.900984    -16.431551  6  6  4  63       
PG28   6430.869428  22180.812340 -13142.285003     78.662877  7  7  5  60       
PG29  -5647.459128  14662.533504 -21448.534483   -607.149095  7  5  3  60       
PG30  -1016.997856 -25458.773879   7126.972274   -498.915643  7  4  2  88       
PG31  12037.144772  12778.893951 -19985.203029   -221.314348  7  4  5  79       
PG32  14920.229595  20180.964805   9179.566160   -534.858299  4  6  5  80       
*  2023  8  5  9 30  0.00000000
PG01  13316.811679 -13955.925706  17755.311658    169.812704  6  2  5  55       
PG02  14785.778706  -7220.857708  21319.530588   -568.794805  6  5  3  66       
PG03  22842.148581 -12994.318594  -3533.700765   -201.559516  4  2  4  99       
PG04  15063.501028  -6698.727274 -20838.582384    116.389183  5  4  5 100       
PG05 -23699.246755   2918.926610 -11927.006990   -137.616742  5  4  4  88       
PG06  -6000.921328 -22476.529918 -12670.401878    570.255350  6  5  4 100       
PG07   5860.906034 -25103.649611  -4753.540469    104.651204  6  5  5  90       
PG08  22264.653358   2688.760402  14458.101059   -135.679099  7  2  7  77       
PG09   5817.387494 -14440.870874 -21591.788092    -94.529634  5  5  4 108       
PG10   3064.856343  14822.306888  21974.925399    -48.019842  7  7  5  72       
PG11 -13124.676501  -9931.385816 -20844.980146   -306.961559  9  6  6  71       
PG12 -24758.688975   9495.717154   -303.745102   -409.220630  6  5  3  72       
PG13 -21878.052092 -11927.805249   9307.505202    556.230472  6  5  6  79       
PG14    783.149863 -16518.368676  20772.843876    144.480520  4  6  5  79       
PG15 -22173.357975    495.679975  14321.547197     64.701130  6  4  4  99       
PG16  22157.254137   3161.090650 -14945.670259   -472.199119  7  5  3  97       
PG17  -9542.830556 -20378.195160  14453.749305    722.255412  6  4  5  75       
PG18  -4817.270044  25881.145109  -2729.491186   -371.488676  6  6  5  75       
PG19 -15925.235823 -20297.363041   6789.226441    353.471199  5  5  4  58       
PG20 -17804.657706  -4423.459612 -19103.480199    418.879455  7  2  4  83       
PG21  15291.110119  -3402.902121  21887.177401    151.206112  6  5  3  84       
PG22  17859.397168  19325.488249   4632.639616    522.742423  9  9  6  97       
PG23 -10341.213430  17747.793922  16748.107685     51.352657  6  5  5  64       
PG24 -14544.590471   9534.362132  19594.275504   -280.237601  5  5  3  64       
PG25 -16670.685280  17077.316549 -11686.047379    460.365100  6  5  5  80       
PG26  13870.518908   9829.481084 -20594.262237    234.094733  5  2  3  87       
PG27  23139.401842  12684.471305   4319.368797    -16.437730  7  6  5  77       
PG28   6093.023667  23519.464018 -10755.597710     78.660342  7  6  5  68       
PG29  -7515.298842  13049.455064 -21922.346256   -607.149790  7  4  3  61       
PG30   -598.303280 -26061.783934   4412.985321   -498.912950  7  3  1  74       
PG31  11570.180365  14925.836872 -18682.710754   -221.315037  8  4  5  77       
PG32  13864.721147  19649.708880  11677.133642   -534.864707  5  6  5  85       
EOF
